[{"OBJECT_NAME":"STARLINK-31309","OBJECT_ID":"2024-044N","EPOCH":"2026-03-09T12:49:55.507872","MEAN_MOTION":15.2756807,"ECCENTRICITY":1.831e-5,"INCLINATION":43.0014,"RA_OF_ASC_NODE":107.7527,"ARG_OF_PERICENTER":226.0341,"MEAN_ANOMALY":134.0496,"EPHEMERIS_TYPE":0,"CLASSIFICATION_TYPE":"U","NORAD_CAT_ID":59164,"ELEMENT_SET_NO":999,"REV_AT_EPOCH":11357,"BSTAR":8.1150608e-5,"MEAN_MOTION_DOT":1.971e-5,"MEAN_MOTION_DDOT":0},{"OBJECT_NAME":"CZ-2C DEB","OBJECT_ID":"2011-030E","EPOCH":"2026-03-09T22:02:28.057920","MEAN_MOTION":15.23147202,"ECCENTRICITY":0.00216086,"INCLINATION":98.1958,"RA_OF_ASC_NODE":48.5667,"ARG_OF_PERICENTER":313.6999,"MEAN_ANOMALY":74.4133,"EPHEMERIS_TYPE":0,"CLASSIFICATION_TYPE":"U","NORAD_CAT_ID":37734,"ELEMENT_SET_NO":999,"REV_AT_EPOCH":78227,"BSTAR":0.0029824689,"MEAN_MOTION_DOT":0.00071429,"MEAN_MOTION_DDOT":0}]
